$$SOE
2460147.500000000, A.D. 2023-Jul-22 00:00:00.0000, -2.862143585178290E+09, -5.898900967875041E+09, 1.394699630374854E+08,
2460154.500000000, A.D. 2023-Jul-29 00:00:00.0000, -2.859766232887749E+09, -5.900130210760545E+09, 1.393463440101955E+08,
2460161.500000000, A.D. 2023-Aug-05 00:00:00.0000, -2.857388472026796E+09, -5.901358462662457E+09, 1.392227032789011E+08,
2460168.500000000, A.D. 2023-Aug-12 00:00:00.0000, -2.855010305319282E+09, -5.902585725365707E+09, 1.390990410153043E+08,
2460175.500000000, A.D. 2023-Aug-19 00:00:00.0000, -2.852631735184276E+09, -5.903812001144054E+09, 1.389753573609099E+08,
2460182.500000000, A.D. 2023-Aug-26 00:00:00.0000, -2.850252763735323E+09, -5.905037292670082E+09, 1.388516524331095E+08,
2460189.500000000, A.D. 2023-Sep-02 00:00:00.0000, -2.847873392802697E+09, -5.906261602996525E+09, 1.387279263265996E+08,
2460196.500000000, A.D. 2023-Sep-09 00:00:00.0000, -2.845493623942027E+09, -5.907484935650114E+09, 1.386041791034372E+08,
2460203.500000000, A.D. 2023-Sep-16 00:00:00.0000, -2.843113458260878E+09, -5.908707294895967E+09, 1.384804107516098E+08,
2460210.500000000, A.D. 2023-Sep-23 00:00:00.0000, -2.840732895646866E+09, -5.909928685885736E+09, 1.383566210974166E+08,
2460217.500000000, A.D. 2023-Sep-30 00:00:00.0000, -2.838351933736885E+09, -5.911149113498785E+09, 1.382328098002315E+08,
2460224.500000000, A.D. 2023-Oct-07 00:00:00.0000, -2.835970568981171E+09, -5.912368580419232E+09, 1.381089766012862E+08,
2460231.500000000, A.D. 2023-Oct-14 00:00:00.0000, -2.833588798762322E+09, -5.913587087762022E+09, 1.379851214605134E+08,
2460238.500000000, A.D. 2023-Oct-21 00:00:00.0000, -2.831206621340652E+09, -5.914804636645306E+09, 1.378612444164815E+08,
2460245.500000000, A.D. 2023-Oct-28 00:00:00.0000, -2.828824035050251E+09, -5.916021228448996E+09, 1.377373454849808E+08,
2460252.500000000, A.D. 2023-Nov-04 00:00:00.0000, -2.826441037995774E+09, -5.917236864529921E+09, 1.376134246482339E+08,
2460259.500000000, A.D. 2023-Nov-11 00:00:00.0000, -2.824057628072395E+09, -5.918451545993412E+09, 1.374894818696768E+08,
2460266.500000000, A.D. 2023-Nov-18 00:00:00.0000, -2.821673803089430E+09, -5.919665273585664E+09, 1.373655171091623E+08,
2460273.500000000, A.D. 2023-Nov-25 00:00:00.0000, -2.819289560924794E+09, -5.920878047684296E+09, 1.372415303339982E+08,
2460280.500000000, A.D. 2023-Dec-02 00:00:00.0000, -2.816904899682118E+09, -5.922089868398301E+09, 1.371175215224781E+08,
2460287.500000000, A.D. 2023-Dec-09 00:00:00.0000, -2.814519817772697E+09, -5.923300735836323E+09, 1.369934906480761E+08,
2460294.500000000, A.D. 2023-Dec-16 00:00:00.0000, -2.812134313634716E+09, -5.924510650530659E+09, 1.368694376189907E+08,
2460301.500000000, A.D. 2023-Dec-23 00:00:00.0000, -2.809748384741303E+09, -5.925719613329570E+09, 1.367453621972148E+08,
2460308.500000000, A.D. 2023-Dec-30 00:00:00.0000, -2.807362027237643E+09, -5.926927623708630E+09, 1.366212641057007E+08,
2460315.500000000, A.D. 2024-Jan-06 00:00:00.0000, -2.804975237979583E+09, -5.928134678861851E+09, 1.364971432930858E+08,
2460322.500000000, A.D. 2024-Jan-13 00:00:00.0000, -2.802588015800998E+09, -5.929340775379456E+09, 1.363729999170899E+08,
2460329.500000000, A.D. 2024-Jan-20 00:00:00.0000, -2.800200360786362E+09, -5.930545910427737E+09, 1.362488341861742E+08,
2460336.500000000, A.D. 2024-Jan-27 00:00:00.0000, -2.797812273577245E+09, -5.931750081778819E+09, 1.361246462986026E+08,
2460343.500000000, A.D. 2024-Feb-03 00:00:00.0000, -2.795423755141133E+09, -5.932953287638915E+09, 1.360004364404283E+08,
2460350.500000000, A.D. 2024-Feb-10 00:00:00.0000, -2.793034806725187E+09, -5.934155526566202E+09, 1.358762047929704E+08,
2460357.500000000, A.D. 2024-Feb-17 00:00:00.0000, -2.790645429856248E+09, -5.935356797470409E+09, 1.357519515375242E+08,
2460364.500000000, A.D. 2024-Feb-24 00:00:00.0000, -2.788255626351158E+09, -5.936557099679298E+09, 1.356276768550670E+08,
2460371.500000000, A.D. 2024-Mar-02 00:00:00.0000, -2.785865398308031E+09, -5.937756433104587E+09, 1.355033809155176E+08,
2460378.500000000, A.D. 2024-Mar-09 00:00:00.0000, -2.783474747939692E+09, -5.938954798570135E+09, 1.353790638385780E+08,
2460385.500000000, A.D. 2024-Mar-16 00:00:00.0000, -2.781083676853953E+09, -5.940152198105180E+09, 1.352547256059933E+08,
2460392.500000000, A.D. 2024-Mar-23 00:00:00.0000, -2.778692184884315E+09, -5.941348634093516E+09, 1.351303660252893E+08,
2460399.500000000, A.D. 2024-Mar-30 00:00:00.0000, -2.776300270712246E+09, -5.942544107305469E+09, 1.350059849483905E+08,
2460406.500000000, A.D. 2024-Apr-06 00:00:00.0000, -2.773907934024992E+09, -5.943738617180222E+09, 1.348815824463654E+08,
2460413.500000000, A.D. 2024-Apr-13 00:00:00.0000, -2.771515175657796E+09, -5.944932163522128E+09, 1.347571586829853E+08,
2460420.500000000, A.D. 2024-Apr-20 00:00:00.0000, -2.769121996672672E+09, -5.946124746934299E+09, 1.346327137931480E+08,
2460427.500000000, A.D. 2024-Apr-27 00:00:00.0000, -2.766728397890741E+09, -5.947316368550891E+09, 1.345082478595004E+08,
2460434.500000000, A.D. 2024-May-04 00:00:00.0000, -2.764334379790241E+09, -5.948507029771365E+09, 1.343837609217463E+08,
2460441.500000000, A.D. 2024-May-11 00:00:00.0000, -2.761939942531837E+09, -5.949696732098352E+09, 1.342592529885907E+08,
2460448.500000000, A.D. 2024-May-18 00:00:00.0000, -2.759545086029272E+09, -5.950885477057228E+09, 1.341347240466862E+08,
2460455.500000000, A.D. 2024-May-25 00:00:00.0000, -2.757149810040625E+09, -5.952073266204226E+09, 1.340101740639186E+08,
2460462.500000000, A.D. 2024-Jun-01 00:00:00.0000, -2.754754114220330E+09, -5.953260101280127E+09, 1.338856029770641E+08,
2460469.500000000, A.D. 2024-Jun-08 00:00:00.0000, -2.752357997885608E+09, -5.954445984532253E+09, 1.337610106396005E+08,
2460476.500000000, A.D. 2024-Jun-15 00:00:00.0000, -2.749961459097767E+09, -5.955630918659345E+09, 1.336363967378232E+08,
2460483.500000000, A.D. 2024-Jun-22 00:00:00.0000, -2.747564494063617E+09, -5.956814905203941E+09, 1.335117608637822E+08,
2460490.500000000, A.D. 2024-Jun-29 00:00:00.0000, -2.745167098978603E+09, -5.957997943212931E+09, 1.333871027911017E+08,
2460497.500000000, A.D. 2024-Jul-06 00:00:00.0000, -2.742769271666675E+09, -5.959180030637165E+09, 1.332624225093389E+08,
2460504.500000000, A.D. 2024-Jul-13 00:00:00.0000, -2.740371011067622E+09, -5.960361165645995E+09, 1.331377200690498E+08,
2460511.500000000, A.D. 2024-Jul-20 00:00:00.0000, -2.737972316557542E+09, -5.961541346707987E+09, 1.330129955136709E+08,
2460518.500000000, A.D. 2024-Jul-27 00:00:00.0000, -2.735573187758440E+09, -5.962720572397173E+09, 1.328882488799481E+08,
2460525.500000000, A.D. 2024-Aug-03 00:00:00.0000, -2.733173624564014E+09, -5.963898841299783E+09, 1.327634802112145E+08,
2460532.500000000, A.D. 2024-Aug-10 00:00:00.0000, -2.730773627215858E+09, -5.965076152025622E+09, 1.326386895677702E+08,
2460539.500000000, A.D. 2024-Aug-17 00:00:00.0000, -2.728373196382761E+09, -5.966252503302163E+09, 1.325138770316310E+08,
2460546.500000000, A.D. 2024-Aug-24 00:00:00.0000, -2.725972333215256E+09, -5.967427894173184E+09, 1.323890427010062E+08,
2460553.500000000, A.D. 2024-Aug-31 00:00:00.0000, -2.723571039259801E+09, -5.968602324363117E+09, 1.322641866586554E+08,
2460560.500000000, A.D. 2024-Sep-07 00:00:00.0000, -2.721169315867095E+09, -5.969775794680343E+09, 1.321393088906319E+08,
2460567.500000000, A.D. 2024-Sep-14 00:00:00.0000, -2.718767163009279E+09, -5.970948306463274E+09, 1.320144092287545E+08,
2460574.500000000, A.D. 2024-Sep-21 00:00:00.0000, -2.716364579534854E+09, -5.972119859656412E+09, 1.318894875363777E+08,
2460581.500000000, A.D. 2024-Sep-28 00:00:00.0000, -2.713961565348818E+09, -5.973290452743838E+09, 1.317645439182427E+08,
2460588.500000000, A.D. 2024-Oct-05 00:00:00.0000, -2.711558121848302E+09, -5.974460084538356E+09, 1.316395786177981E+08,
2460595.500000000, A.D. 2024-Oct-12 00:00:00.0000, -2.709154250974344E+09, -5.975628754846018E+09, 1.315145918785090E+08,
2460602.500000000, A.D. 2024-Oct-19 00:00:00.0000, -2.706749954630718E+09, -5.976796464276748E+09, 1.313895839075880E+08,
2460609.500000000, A.D. 2024-Oct-26 00:00:00.0000, -2.704345234502153E+09, -5.977963214002232E+09, 1.312645548795714E+08,
2460616.500000000, A.D. 2024-Nov-02 00:00:00.0000, -2.701940092014515E+09, -5.979129005609239E+09, 1.311395049440575E+08,
2460623.500000000, A.D. 2024-Nov-09 00:00:00.0000, -2.699534528340201E+09, -5.980293841027405E+09, 1.310144342304401E+08,
2460630.500000000, A.D. 2024-Nov-16 00:00:00.0000, -2.697128544422710E+09, -5.981457722530892E+09, 1.308893428473358E+08,
2460637.500000000, A.D. 2024-Nov-23 00:00:00.0000, -2.694722140973299E+09, -5.982620652863572E+09, 1.307642308684013E+08,
2460644.500000000, A.D. 2024-Nov-30 00:00:00.0000, -2.692315318231285E+09, -5.983782635530087E+09, 1.306390982820182E+08,
2460651.500000000, A.D. 2024-Dec-07 00:00:00.0000, -2.689908075068469E+09, -5.984943674831990E+09, 1.305139449008501E+08,
2460658.500000000, A.D. 2024-Dec-14 00:00:00.0000, -2.687500408126198E+09, -5.986103774424763E+09, 1.303887703945873E+08,
2460665.500000000, A.D. 2024-Dec-21 00:00:00.0000, -2.685092313303555E+09, -5.987262935636386E+09, 1.302635745572913E+08,
2460672.500000000, A.D. 2024-Dec-28 00:00:00.0000, -2.682683787624158E+09, -5.988421158514687E+09, 1.301383573860939E+08,
2460679.500000000, A.D. 2025-Jan-04 00:00:00.0000, -2.680274828884287E+09, -5.989578443227216E+09, 1.300131189274313E+08,
2460686.500000000, A.D. 2025-Jan-11 00:00:00.0000, -2.677865434903490E+09, -5.990734790153775E+09, 1.298878591937208E+08,
2460693.500000000, A.D. 2025-Jan-18 00:00:00.0000, -2.675455603294499E+09, -5.991890199590380E+09, 1.297625781597664E+08,
2460700.500000000, A.D. 2025-Jan-25 00:00:00.0000, -2.673045331508832E+09, -5.993044671539186E+09, 1.296372757780399E+08,
2460707.500000000, A.D. 2025-Feb-01 00:00:00.0000, -2.670634616968447E+09, -5.994198205614494E+09, 1.295119519932384E+08,
$$EOE